[{"OBJECT_NAME":"STARLINK-34458","OBJECT_ID":"2025-126S","EPOCH":"2026-03-09T20:04:15.343680","MEAN_MOTION":14.98329544,"ECCENTRICITY":0.00028584,"INCLINATION":70.0023,"RA_OF_ASC_NODE":34.0923,"ARG_OF_PERICENTER":266.5714,"MEAN_ANOMALY":93.5118,"EPHEMERIS_TYPE":0,"CLASSIFICATION_TYPE":"U","NORAD_CAT_ID":64360,"ELEMENT_SET_NO":999,"REV_AT_EPOCH":4070,"BSTAR":0.00045292886,"MEAN_MOTION_DOT":5.315e-5,"MEAN_MOTION_DDOT":0},{"OBJECT_NAME":"PEGASUS DEB","OBJECT_ID":"1994-029AEU","EPOCH":"2026-02-23T03:26:51.278784","MEAN_MOTION":14.47195941,"ECCENTRICITY":0.02323685,"INCLINATION":81.7405,"RA_OF_ASC_NODE":6.5005,"ARG_OF_PERICENTER":184.7349,"MEAN_ANOMALY":175.1651,"EPHEMERIS_TYPE":0,"CLASSIFICATION_TYPE":"U","NORAD_CAT_ID":39309,"ELEMENT_SET_NO":999,"REV_AT_EPOCH":72117,"BSTAR":0.00045281266,"MEAN_MOTION_DOT":2.342e-5,"MEAN_MOTION_DDOT":0}]
